UMBRA-07                
1 58297U 23174AT  26189.38686867  .00005294  00000+0  33372-3 0  9996
2 58297  97.3779 244.3499 0002912  36.5868 323.5560 15.09535965146610
UMBRA-09                
1 60541U 24149CB  26189.22214817  .00007913  00000+0  38476-3 0  9999
2 60541  97.6970 276.7964 0001913 215.8066 144.3039 15.18698807103910
UMBRA-10                
1 60547U 24149CH  26189.48524830  .00010911  00000+0  52875-3 0  9993
2 60547  97.6971 277.0938 0001172 174.1395 185.9852 15.18714390103966
UMBRA-11                
1 66748U 25276CL  26189.48646091  .00015842  00000+0  58931-3 0  9995
2 66748  97.4190 263.9960 0002002 205.1023 155.0119 15.27590248 33747
UMBRA-12                
1 67371U 26004J   26189.47115830  .00003292  00000+0  35129-3 0  9999
2 67371  97.8021 187.9476 0007785  70.7559 289.4500 14.89497613 26474
