{"fetched_at":"2026-07-08T18:00:57.874Z","source":"https://celestrak.org/NORAD/elements/gp.php?NAME=UMBRA&FORMAT=JSON","constellation":"umbra","records":[{"OBJECT_NAME":"UMBRA-07","OBJECT_ID":"2023-174AT","EPOCH":"2026-07-08T09:17:05.453088","CLASSIFICATION_TYPE":"U","MEAN_MOTION":15.09535965,"ECCENTRICITY":0.0002912,"INCLINATION":97.3779,"RA_OF_ASC_NODE":244.3499,"ARG_OF_PERICENTER":36.5868,"MEAN_ANOMALY":323.556,"EPHEMERIS_TYPE":0,"NORAD_CAT_ID":58297,"ELEMENT_SET_NO":999,"REV_AT_EPOCH":14661,"BSTAR":0.00033372,"MEAN_MOTION_DOT":0.00005294,"MEAN_MOTION_DDOT":0},{"OBJECT_NAME":"UMBRA-09","OBJECT_ID":"2024-149CB","EPOCH":"2026-07-08T05:19:53.601888","CLASSIFICATION_TYPE":"U","MEAN_MOTION":15.18698807,"ECCENTRICITY":0.0001913,"INCLINATION":97.697,"RA_OF_ASC_NODE":276.7964,"ARG_OF_PERICENTER":215.8066,"MEAN_ANOMALY":144.3039,"EPHEMERIS_TYPE":0,"NORAD_CAT_ID":60541,"ELEMENT_SET_NO":999,"REV_AT_EPOCH":10391,"BSTAR":0.00038476,"MEAN_MOTION_DOT":0.00007913,"MEAN_MOTION_DDOT":0},{"OBJECT_NAME":"UMBRA-10","OBJECT_ID":"2024-149CH","EPOCH":"2026-07-08T11:38:45.453120","CLASSIFICATION_TYPE":"U","MEAN_MOTION":15.1871439,"ECCENTRICITY":0.0001172,"INCLINATION":97.6971,"RA_OF_ASC_NODE":277.0938,"ARG_OF_PERICENTER":174.1395,"MEAN_ANOMALY":185.9852,"EPHEMERIS_TYPE":0,"NORAD_CAT_ID":60547,"ELEMENT_SET_NO":999,"REV_AT_EPOCH":10396,"BSTAR":0.00052875,"MEAN_MOTION_DOT":0.00010911,"MEAN_MOTION_DDOT":0},{"OBJECT_NAME":"UMBRA-11","OBJECT_ID":"2025-276CL","EPOCH":"2026-07-08T11:40:30.222624","CLASSIFICATION_TYPE":"U","MEAN_MOTION":15.27590248,"ECCENTRICITY":0.0002002,"INCLINATION":97.419,"RA_OF_ASC_NODE":263.996,"ARG_OF_PERICENTER":205.1023,"MEAN_ANOMALY":155.0119,"EPHEMERIS_TYPE":0,"NORAD_CAT_ID":66748,"ELEMENT_SET_NO":999,"REV_AT_EPOCH":3374,"BSTAR":0.00058931,"MEAN_MOTION_DOT":0.00015842,"MEAN_MOTION_DDOT":0},{"OBJECT_NAME":"UMBRA-12","OBJECT_ID":"2026-004J","EPOCH":"2026-07-08T11:18:28.077120","CLASSIFICATION_TYPE":"U","MEAN_MOTION":14.89497613,"ECCENTRICITY":0.0007785,"INCLINATION":97.8021,"RA_OF_ASC_NODE":187.9476,"ARG_OF_PERICENTER":70.7559,"MEAN_ANOMALY":289.45,"EPHEMERIS_TYPE":0,"NORAD_CAT_ID":67371,"ELEMENT_SET_NO":999,"REV_AT_EPOCH":2647,"BSTAR":0.00035129,"MEAN_MOTION_DOT":0.00003292,"MEAN_MOTION_DDOT":0}]}
